{"type": "FeatureCollection", "features": [ {"type": "Feature", "properties": {"norad_id": 37691, "name": "FENGYUN 1C DEB", "group": "fengyun-1c-debris", "lat": 19.903568171670294, "lon": 84.52966570077233, "alt_km": 553.9568599550403, "timestamp": "2025-12-23T16:57:12.642473+00:00", "meta": {"OBJECT_NAME": "FENGYUN 1C DEB", "OBJECT_ID": "1999-025ELG", "EPOCH": "2025-12-21T11:32:02.695200", "MEAN_MOTION": 14.57828079, "ECCENTRICITY": 0.02804596, "INCLINATION": 98.3729, "RA_OF_ASC_NODE": 259.23, "ARG_OF_PERICENTER": 122.9846, "MEAN_ANOMALY": 239.8647, "EPHEMERIS_TYPE": 0, "CLASSIFICATION_TYPE": "U", "NORAD_CAT_ID": 37691, "ELEMENT_SET_NO": 999, "REV_AT_EPOCH": 85761, "BSTAR": 0.0012109089, "MEAN_MOTION_DOT": 9.521e-05, "MEAN_MOTION_DDOT": 0}, "tle": {"line1": "1 37691U 99025ELG 25355.48058675  .00009521  00000+0  12109-2 0  9995", "line2": "2 37691  98.3729 259.2300 0280459 122.9846 239.8647 14.57828079857614"}}, "geometry": {"type": "Point", "coordinates": [84.52966570077233, 19.903568171670294]}}, {"type": "Feature", "properties": {"norad_id": 37693, "name": "FENGYUN 1C DEB", "group": "fengyun-1c-debris", "lat": 79.29865891230736, "lon": -56.95910172550127, "alt_km": 816.474275339513, "timestamp": "2025-12-23T16:57:12.642483+00:00", "meta": {"OBJECT_NAME": "FENGYUN 1C DEB", "OBJECT_ID": "1999-025ELJ", "EPOCH": "2025-12-16T18:19:01.844256", "MEAN_MOTION": 14.08494893, "ECCENTRICITY": 0.00726586, "INCLINATION": 98.6941, "RA_OF_ASC_NODE": 350.4139, "ARG_OF_PERICENTER": 63.6223, "MEAN_ANOMALY": 113.0699, "EPHEMERIS_TYPE": 0, "CLASSIFICATION_TYPE": "U", "NORAD_CAT_ID": 37693, "ELEMENT_SET_NO": 999, "REV_AT_EPOCH": 62205, "BSTAR": 0.00066899007, "MEAN_MOTION_DOT": 1.134e-05, "MEAN_MOTION_DDOT": 0}, "tle": {"line1": "1 37693U 99025ELJ 25350.76321579  .00001134  00000+0  66899-3 0  9997", "line2": "2 37693  98.6941 350.4139 0072658  63.6223 113.0699 14.08494893622056"}}, "geometry": {"type": "Point", "coordinates": [-56.95910172550127, 79.29865891230736]}}, {"type": "Feature", "properties": {"norad_id": 37694, "name": "FENGYUN 1C DEB", "group": "fengyun-1c-debris", "lat": 41.50616013591254, "lon": -108.20652340102207, "alt_km": 806.2692850386438, "timestamp": "2025-12-23T16:57:12.642493+00:00", "meta": {"OBJECT_NAME": "FENGYUN 1C DEB", "OBJECT_ID": "1999-025ELK", "EPOCH": "2025-12-14T10:20:27.757248", "MEAN_MOTION": 14.16668534, "ECCENTRICITY": 0.01472645, "INCLINATION": 98.1988, "RA_OF_ASC_NODE": 55.9107, "ARG_OF_PERICENTER": 88.6122, "MEAN_ANOMALY": 288.1431, "EPHEMERIS_TYPE": 0, "CLASSIFICATION_TYPE": "U", "NORAD_CAT_ID": 37694, "ELEMENT_SET_NO": 999, "REV_AT_EPOCH": 51728, "BSTAR": 0.0018272074, "MEAN_MOTION_DOT": 4.021e-05, "MEAN_MOTION_DDOT": 0}, "tle": {"line1": "1 37694U 99025ELK 25348.43087682  .00004021  00000+0  18272-2 0  9992", "line2": "2 37694  98.1988  55.9107 0147264  88.6122 288.1431 14.16668534517286"}}, "geometry": {"type": "Point", "coordinates": [-108.20652340102207, 41.50616013591254]}}, {"type": "Feature", "properties": {"norad_id": 37695, "name": "FENGYUN 1C DEB", "group": "fengyun-1c-debris", "lat": 26.75791349829228, "lon": -136.44170451327366, "alt_km": 933.7199519447122, "timestamp": "2025-12-23T16:57:12.642503+00:00", "meta": {"OBJECT_NAME": "FENGYUN 1C DEB", "OBJECT_ID": "1999-025ELL", "EPOCH": "2025-12-15T20:50:38.916672", "MEAN_MOTION": 13.64992638, "ECCENTRICITY": 0.04654766, "INCLINATION": 98.2113, "RA_OF_ASC_NODE": 32.72, "ARG_OF_PERICENTER": 252.5094, "MEAN_ANOMALY": 291.0319, "EPHEMERIS_TYPE": 0, "CLASSIFICATION_TYPE": "U", "NORAD_CAT_ID": 37695, "ELEMENT_SET_NO": 999, "REV_AT_EPOCH": 89294, "BSTAR": 0.00074996206, "MEAN_MOTION_DOT": 1.237e-05, "MEAN_MOTION_DDOT": 0}, "tle": {"line1": "1 37695U 99025ELL 25349.86850598  .00001237  00000+0  74996-3 0  9997", "line2": "2 37695  98.2113  32.7200 0465476 252.5094 291.0319 13.64992638892947"}}, "geometry": {"type": "Point", "coordinates": [-136.44170451327366, 26.75791349829228]}}, {"type": "Feature", "properties": {"norad_id": 37704, "name": "FENGYUN 1C DEB", "group": "fengyun-1c-debris", "lat": -16.404805847173083, "lon": -168.1419565172118, "alt_km": 1173.8850595767517, "timestamp": "2025-12-23T16:57:12.642514+00:00", "meta": {"OBJECT_NAME": "FENGYUN 1C DEB", "OBJECT_ID": "1999-025ELV", "EPOCH": "2025-12-10T18:58:47.253216", "MEAN_MOTION": 13.70500661, "ECCENTRICITY": 0.02401356, "INCLINATION": 98.3199, "RA_OF_ASC_NODE": 178.1952, "ARG_OF_PERICENTER": 184.1814, "MEAN_ANOMALY": 190.5574, "EPHEMERIS_TYPE": 0, "CLASSIFICATION_TYPE": "U", "NORAD_CAT_ID": 37704, "ELEMENT_SET_NO": 999, "REV_AT_EPOCH": 62338, "BSTAR": 0.0019314833, "MEAN_MOTION_DOT": 2.062e-05, "MEAN_MOTION_DDOT": 0}, "tle": {"line1": "1 37704U 99025ELV 25344.79082469  .00002062  00000+0  19315-2 0  9999", "line2": "2 37704  98.3199 178.1952 0240135 184.1814 190.5574 13.70500661623389"}}, "geometry": {"type": "Point", "coordinates": [-168.1419565172118, -16.404805847173083]}}, {"type": "Feature", "properties": {"norad_id": 37707, "name": "FENGYUN 1C DEB", "group": "fengyun-1c-debris", "lat": -54.667275643899366, "lon": 169.40996777606506, "alt_km": 758.0878149358987, "timestamp": "2025-12-23T16:57:12.642524+00:00", "meta": {"OBJECT_NAME": "FENGYUN 1C DEB", "OBJECT_ID": "1999-025ELY", "EPOCH": "2025-12-17T06:35:19.530240", "MEAN_MOTION": 14.56477467, "ECCENTRICITY": 0.01433735, "INCLINATION": 100.2206, "RA_OF_ASC_NODE": 356.2824, "ARG_OF_PERICENTER": 12.733, "MEAN_ANOMALY": 358.6114, "EPHEMERIS_TYPE": 0, "CLASSIFICATION_TYPE": "U", "NORAD_CAT_ID": 37707, "ELEMENT_SET_NO": 999, "REV_AT_EPOCH": 85632, "BSTAR": 0.00056858098, "MEAN_MOTION_DOT": 2.832e-05, "MEAN_MOTION_DDOT": 0}, "tle": {"line1": "1 37707U 99025ELY 25351.27453160  .00002832  00000+0  56858-3 0  9992", "line2": "2 37707 100.2206 356.2824 0143373  12.7330 358.6114 14.56477467856327"}}, "geometry": {"type": "Point", "coordinates": [169.40996777606506, -54.667275643899366]}}, {"type": "Feature", "properties": {"norad_id": 37712, "name": "FENGYUN 1C DEB", "group": "fengyun-1c-debris", "lat": 15.303539522841582, "lon": 134.54726736696156, "alt_km": 737.948728255933, "timestamp": "2025-12-23T16:57:12.642534+00:00", "meta": {"OBJECT_NAME": "FENGYUN 1C DEB", "OBJECT_ID": "1999-025EMD", "EPOCH": "2025-12-21T03:52:22.322208", "MEAN_MOTION": 14.3644777, "ECCENTRICITY": 0.00788764, "INCLINATION": 98.8186, "RA_OF_ASC_NODE": 134.3771, "ARG_OF_PERICENTER": 328.6052, "MEAN_ANOMALY": 212.8774, "EPHEMERIS_TYPE": 0, "CLASSIFICATION_TYPE": "U", "NORAD_CAT_ID": 37712, "ELEMENT_SET_NO": 999, "REV_AT_EPOCH": 64081, "BSTAR": 0.00029257715, "MEAN_MOTION_DOT": 8.41e-06, "MEAN_MOTION_DDOT": 0}, "tle": {"line1": "1 37712U 99025EMD 25355.16136947  .00000841  00000+0  29258-3 0  9993", "line2": "2 37712  98.8186 134.3771 0078876 328.6052 212.8774 14.36447770640813"}}, "geometry": {"type": "Point", "coordinates": [134.54726736696156, 15.303539522841582]}}, {"type": "Feature", "properties": {"norad_id": 37714, "name": "FENGYUN 1C DEB", "group": "fengyun-1c-debris", "lat": 69.50109926394066, "lon": -45.55848348942279, "alt_km": 758.3486669834992, "timestamp": "2025-12-23T16:57:12.642544+00:00", "meta": {"OBJECT_NAME": "FENGYUN 1C DEB", "OBJECT_ID": "1999-025EMF", "EPOCH": "2025-12-23T01:21:50.423040", "MEAN_MOTION": 14.32327633, "ECCENTRICITY": 0.00473504, "INCLINATION": 98.8929, "RA_OF_ASC_NODE": 109.0175, "ARG_OF_PERICENTER": 53.8704, "MEAN_ANOMALY": 306.6848, "EPHEMERIS_TYPE": 0, "CLASSIFICATION_TYPE": "U", "NORAD_CAT_ID": 37714, "ELEMENT_SET_NO": 999, "REV_AT_EPOCH": 57657, "BSTAR": 0.0019523665, "MEAN_MOTION_DOT": 5.296e-05, "MEAN_MOTION_DDOT": 0}, "tle": {"line1": "1 37714U 99025EMF 25357.05683360  .00005296  00000+0  19524-2 0  9994", "line2": "2 37714  98.8929 109.0175 0047350  53.8704 306.6848 14.32327633576577"}}, "geometry": {"type": "Point", "coordinates": [-45.55848348942279, 69.50109926394066]}}, {"type": "Feature", "properties": {"norad_id": 37715, "name": "FENGYUN 1C DEB", "group": "fengyun-1c-debris", "lat": -75.14980729565539, "lon": 148.66699940401773, "alt_km": 1000.2318996656568, "timestamp": "2025-12-23T16:57:12.642554+00:00", "meta": {"OBJECT_NAME": "FENGYUN 1C DEB", "OBJECT_ID": "1999-025EMG", "EPOCH": "2025-12-20T19:43:59.291328", "MEAN_MOTION": 13.95423979, "ECCENTRICITY": 0.01145273, "INCLINATION": 98.9554, "RA_OF_ASC_NODE": 2.3565, "ARG_OF_PERICENTER": 90.0552, "MEAN_ANOMALY": 87.0761, "EPHEMERIS_TYPE": 0, "CLASSIFICATION_TYPE": "U", "NORAD_CAT_ID": 37715, "ELEMENT_SET_NO": 999, "REV_AT_EPOCH": 57916, "BSTAR": 0.00028530169, "MEAN_MOTION_DOT": 3.67e-06, "MEAN_MOTION_DDOT": 0}, "tle": {"line1": "1 37715U 99025EMG 25354.82221402  .00000367  00000+0  28530-3 0  9994", "line2": "2 37715  98.9554   2.3565 0114527  90.0552  87.0761 13.95423979579166"}}, "geometry": {"type": "Point", "coordinates": [148.66699940401773, -75.14980729565539]}}, {"type": "Feature", "properties": {"norad_id": 37717, "name": "FENGYUN 1C DEB", "group": "fengyun-1c-debris", "lat": -71.89494717308, "lon": 106.66379617003159, "alt_km": 631.7809429464342, "timestamp": "2025-12-23T16:57:12.642578+00:00", "meta": {"OBJECT_NAME": "FENGYUN 1C DEB", "OBJECT_ID": "1999-025EMJ", "EPOCH": "2025-12-15T15:45:42.031008", "MEAN_MOTION": 14.94137729, "ECCENTRICITY": 0.0058722, "INCLINATION": 98.7255, "RA_OF_ASC_NODE": 305.7435, "ARG_OF_PERICENTER": 93.683, "MEAN_ANOMALY": 83.3944, "EPHEMERIS_TYPE": 0, "CLASSIFICATION_TYPE": "U", "NORAD_CAT_ID": 37717, "ELEMENT_SET_NO": 999, "REV_AT_EPOCH": 89441, "BSTAR": 0.0018768118, "MEAN_MOTION_DOT": 0.00020752, "MEAN_MOTION_DDOT": 0}, "tle": {"line1": "1 37717U 99025EMJ 25349.65673647  .00020752  00000+0  18768-2 0  9994", "line2": "2 37717  98.7255 305.7435 0058722  93.6830  83.3944 14.94137729894417"}}, "geometry": {"type": "Point", "coordinates": [106.66379617003159, -71.89494717308]}}]}